OBJECT_NAME,OBJECT_ID,EPOCH,MEAN_MOTION,ECCENTRICITY,INCLINATION,RA_OF_ASC_NODE,ARG_OF_PERICENTER,MEAN_ANOMALY,EPHEMERIS_TYPE,CLASSIFICATION_TYPE,NORAD_CAT_ID,ELEMENT_SET_NO,REV_AT_EPOCH,BSTAR,MEAN_MOTION_DOT,MEAN_MOTION_DDOT
ONEWEB-0211,2021-045A,2026-06-11T13:34:16.363488,13.16196449,.00017179,87.9005,260.2026,121.7548,238.3750,0,U,48767,999,24370,.20129387E-3,.89E-6,0
ONEWEB-0223,2021-045B,2026-06-11T13:33:38.314656,13.15542949,.00015825,87.9010,260.3096,108.6244,251.5058,0,U,48768,999,24366,-.2253857E-3,-.72E-6,0
ONEWEB-0230,2021-045C,2026-06-11T12:52:33.875616,13.15548311,.00020526,87.9000,260.3295,96.3321,263.8043,0,U,48769,999,24392,-.13936412E-3,-.4E-6,0
ONEWEB-0237,2021-045D,2026-06-11T12:36:34.137504,13.15547007,.0001705,87.9002,260.3336,100.7835,259.3487,0,U,48770,999,24364,-.26180534E-3,-.86E-6,0
ONEWEB-0235,2021-045E,2026-06-11T12:00:05.400000,13.15548141,.00015537,87.9010,260.3237,105.5908,254.5394,0,U,48771,999,24363,.38397666E-3,.157E-5,0
ONEWEB-0242,2021-045F,2026-06-11T13:40:27.510240,13.15552055,.00018307,87.9011,260.3065,97.2201,262.9137,0,U,48772,999,24368,-.19711547E-2,-.729E-5,0
ONEWEB-0241,2021-045G,2026-06-11T13:22:14.268576,13.15549003,.00017404,87.8997,260.3280,112.7247,247.4067,0,U,48773,999,24359,.33743911E-3,.14E-5,0
ONEWEB-0243,2021-045H,2026-06-11T12:18:20.260800,13.15548702,.00015217,87.9001,260.3490,90.2498,269.8806,0,U,48774,999,24361,.7047186E-4,.39E-6,0
ONEWEB-0222,2021-045J,2026-06-11T13:43:54.146208,13.15548754,.0001771,87.9008,260.3044,105.6510,254.4816,0,U,48775,999,24366,.34516443E-3,.143E-5,0
ONEWEB-0244,2021-045K,2026-06-11T12:32:01.736448,13.15548494,.00018371,87.9016,260.3086,100.7244,259.4093,0,U,48776,999,24422,-.14149642E-3,-.4E-6,0
ONEWEB-0247,2021-045L,2026-06-11T06:58:52.960800,13.15547488,.00011404,87.9000,260.3875,95.2487,264.8773,0,U,48777,999,24363,-.13095322E-3,-.36E-6,0
ONEWEB-0245,2021-045M,2026-06-11T12:20:36.429792,13.15547979,.00018924,87.9009,260.3217,105.8199,254.3141,0,U,48778,999,24363,-.11458761E-4,.9E-7,0
ONEWEB-0229,2021-045N,2026-06-11T12:13:46.441056,13.15548818,.00018438,87.9010,260.3207,97.9849,262.1491,0,U,48779,999,24366,.66180129E-4,.38E-6,0
ONEWEB-0228,2021-045P,2026-06-11T13:01:51.744000,13.15548261,.00018972,87.9013,260.3064,101.7083,258.4260,0,U,48780,999,24358,-.7541497E-3,-.271E-5,0
ONEWEB-0232,2021-045Q,2026-06-11T12:25:10.164000,13.15550361,.00019733,87.9013,260.3124,102.9951,257.1400,0,U,48781,999,24390,-.77418082E-4,-.16E-6,0
ONEWEB-0231,2021-045R,2026-06-11T13:42:45.383904,13.15548605,.00017405,87.9006,260.3153,104.6225,255.5099,0,U,48782,999,24360,.32550462E-3,.135E-5,0
ONEWEB-0234,2021-045S,2026-06-11T12:47:48.047136,13.15549009,.00026251,87.9007,260.3044,114.3013,245.8392,0,U,48783,999,24373,-.22469194E-3,-.72E-6,0
ONEWEB-0238,2021-045T,2026-06-11T05:30:05.214528,13.15548982,.00022824,87.9013,260.3592,109.2171,250.9206,0,U,48784,999,24359,-.88918416E-3,-.322E-5,0
ONEWEB-0240,2021-045U,2026-06-11T13:18:47.481408,13.15547738,.00017886,87.9012,260.3046,109.8163,250.3160,0,U,48785,999,24366,.24907162E-3,.107E-5,0
ONEWEB-0246,2021-045V,2026-06-11T13:10:49.337760,13.15549056,.00018676,87.9011,260.3103,98.3438,261.7904,0,U,48786,999,24353,.12359025E-3,.59E-6,0
ONEWEB-0210,2021-045W,2026-06-11T12:34:17.582304,13.15550299,.00012224,87.9017,260.3125,81.1409,278.9860,0,U,48787,999,24357,-.6188651E-4,-.1E-6,0
ONEWEB-0214,2021-045X,2026-06-11T12:46:51.267648,13.15548670,.00019,87.9012,260.3073,89.8106,270.3242,0,U,48788,999,24354,-.20019942E-3,-.63E-6,0
ONEWEB-0221,2021-045Y,2026-06-11T12:57:07.563168,13.15548146,.00017823,87.9010,260.3147,103.3258,256.8071,0,U,48789,999,24363,-.11256362E-3,-.3E-6,0
ONEWEB-0213,2021-045Z,2026-06-11T12:41:07.865664,13.15547007,.0001665,87.9011,260.3202,100.6161,259.5157,0,U,48790,999,24369,-.21089357E-3,-.67E-6,0
ONEWEB-0212,2021-045AA,2026-06-11T12:08:04.258176,13.15549875,.00019985,87.9010,260.3190,101.8714,258.2641,0,U,48791,999,24368,.22289451E-3,.97E-6,0
ONEWEB-0227,2021-045AB,2026-06-11T12:06:56.083392,13.15548781,.0001893,87.9008,260.3200,102.8294,257.3048,0,U,48792,999,24363,.34375647E-3,.142E-5,0
ONEWEB-0226,2021-045AC,2026-06-11T11:57:47.617056,13.15550031,.00016974,87.9006,260.3261,97.7776,262.3547,0,U,48793,999,24360,.45111395E-3,.183E-5,0
ONEWEB-0224,2021-045AD,2026-06-11T12:54:49.201344,13.15547546,.00021703,87.9000,260.3526,125.1608,234.9726,0,U,48794,999,24353,-.39363096E-3,-.135E-5,0
ONEWEB-0233,2021-045AE,2026-06-11T13:01:29.373312,13.15548016,.00017162,87.8999,260.3592,106.8739,253.2579,0,U,48795,999,24355,-.60064137E-4,-.1E-6,0
ONEWEB-0190,2021-045AF,2026-06-11T12:43:24.623904,13.15546669,.00012787,87.9003,260.3235,105.3475,254.7796,0,U,48796,999,24362,-.29549477E-3,-.98E-6,0
