ONEWEB-0211             
1 48767U 21045A   26162.56546717  .00000089  00000+0  20129-3 0  9995
2 48767  87.9005 260.2026 0001717 121.7548 238.3750 13.16196449243703
ONEWEB-0223             
1 48768U 21045B   26162.56502679 -.00000072  00000+0 -22539-3 0  9996
2 48768  87.9010 260.3096 0001582 108.6244 251.5058 13.15542949243667
ONEWEB-0230             
1 48769U 21045C   26162.53650319 -.00000040  00000+0 -13936-3 0  9995
2 48769  87.9000 260.3295 0002052  96.3321 263.8043 13.15548311243928
ONEWEB-0237             
1 48770U 21045D   26162.52539511 -.00000086  00000+0 -26181-3 0  9992
2 48770  87.9002 260.3336 0001705 100.7835 259.3487 13.15547007243644
ONEWEB-0235             
1 48771U 21045E   26162.50006250  .00000157  00000+0  38398-3 0  9990
2 48771  87.9010 260.3237 0001553 105.5908 254.5394 13.15548141243632
ONEWEB-0242             
1 48772U 21045F   26162.56976285 -.00000729  00000+0 -19712-2 0  9996
2 48772  87.9011 260.3065 0001830  97.2201 262.9137 13.15552055243686
ONEWEB-0241             
1 48773U 21045G   26162.55710959  .00000140  00000+0  33744-3 0  9997
2 48773  87.8997 260.3280 0001740 112.7247 247.4067 13.15549003243590
ONEWEB-0243             
1 48774U 21045H   26162.51273450  .00000039  00000+0  70472-4 0  9991
2 48774  87.9001 260.3490 0001521  90.2498 269.8806 13.15548702243613
ONEWEB-0222             
1 48775U 21045J   26162.57215447  .00000143  00000+0  34516-3 0  9994
2 48775  87.9008 260.3044 0001771 105.6510 254.4816 13.15548754243662
ONEWEB-0244             
1 48776U 21045K   26162.52224232 -.00000040  00000+0 -14150-3 0  9992
2 48776  87.9016 260.3086 0001837 100.7244 259.4093 13.15548494244227
ONEWEB-0247             
1 48777U 21045L   26162.29089075 -.00000036  00000+0 -13095-3 0  9993
2 48777  87.9000 260.3875 0001140  95.2487 264.8773 13.15547488243632
ONEWEB-0245             
1 48778U 21045M   26162.51431053  .00000009  00000+0 -11459-4 0  9998
2 48778  87.9009 260.3217 0001892 105.8199 254.3141 13.15547979243632
ONEWEB-0229             
1 48779U 21045N   26162.50956529  .00000038  00000+0  66180-4 0  9990
2 48779  87.9010 260.3207 0001843  97.9849 262.1491 13.15548818243664
ONEWEB-0228             
1 48780U 21045P   26162.54296000 -.00000271  00000+0 -75415-3 0  9998
2 48780  87.9013 260.3064 0001897 101.7083 258.4260 13.15548261243588
ONEWEB-0232             
1 48781U 21045Q   26162.51747875 -.00000016  00000+0 -77418-4 0  9990
2 48781  87.9013 260.3124 0001973 102.9951 257.1400 13.15550361243900
ONEWEB-0231             
1 48782U 21045R   26162.57135861  .00000135  00000+0  32550-3 0  9990
2 48782  87.9006 260.3153 0001740 104.6225 255.5099 13.15548605243601
ONEWEB-0234             
1 48783U 21045S   26162.53319499 -.00000072  00000+0 -22469-3 0  9998
2 48783  87.9007 260.3044 0002625 114.3013 245.8392 13.15549009243739
ONEWEB-0238             
1 48784U 21045T   26162.22922702 -.00000322  00000+0 -88918-3 0  9991
2 48784  87.9013 260.3592 0002282 109.2171 250.9206 13.15548982243596
ONEWEB-0240             
1 48785U 21045U   26162.55471622  .00000107  00000+0  24907-3 0  9995
2 48785  87.9012 260.3046 0001788 109.8163 250.3160 13.15547738243666
ONEWEB-0246             
1 48786U 21045V   26162.54918215  .00000059  00000+0  12359-3 0  9993
2 48786  87.9011 260.3103 0001867  98.3438 261.7904 13.15549056243538
ONEWEB-0210             
1 48787U 21045W   26162.52381461 -.00000010  00000+0 -61887-4 0  9999
2 48787  87.9017 260.3125 0001222  81.1409 278.9860 13.15550299243578
ONEWEB-0214             
1 48788U 21045X   26162.53253782 -.00000063  00000+0 -20020-3 0  9996
2 48788  87.9012 260.3073 0001900  89.8106 270.3242 13.15548670243545
ONEWEB-0221             
1 48789U 21045Y   26162.53967087 -.00000030  00000+0 -11256-3 0  9992
2 48789  87.9010 260.3147 0001782 103.3258 256.8071 13.15548146243631
ONEWEB-0213             
1 48790U 21045Z   26162.52856326 -.00000067  00000+0 -21089-3 0  9991
2 48790  87.9011 260.3202 0001665 100.6161 259.5157 13.15547007243695
ONEWEB-0212             
1 48791U 21045AA  26162.50560484  .00000097  00000+0  22289-3 0  9991
2 48791  87.9010 260.3190 0001998 101.8714 258.2641 13.15549875243685
ONEWEB-0227             
1 48792U 21045AB  26162.50481578  .00000142  00000+0  34376-3 0  9999
2 48792  87.9008 260.3200 0001893 102.8294 257.3048 13.15548781243634
ONEWEB-0226             
1 48793U 21045AC  26162.49846779  .00000183  00000+0  45111-3 0  9990
2 48793  87.9006 260.3261 0001697  97.7776 262.3547 13.15550031243607
ONEWEB-0224             
1 48794U 21045AD  26162.53806946 -.00000135  00000+0 -39363-3 0  9999
2 48794  87.9000 260.3526 0002170 125.1608 234.9726 13.15547546243536
ONEWEB-0233             
1 48795U 21045AE  26162.54270108 -.00000010  00000+0 -60064-4 0  9991
2 48795  87.8999 260.3592 0001716 106.8739 253.2579 13.15548016243557
ONEWEB-0190             
1 48796U 21045AF  26162.53014611 -.00000098  00000+0 -29549-3 0  9994
2 48796  87.9003 260.3235 0001278 105.3475 254.7796 13.15546669243620
